NORAD_CAT_ID,OBJECT_NAME,OBJECT_TYPE,EPOCH,MEAN_MOTION,ECCENTRICITY,INCLINATION,RA_OF_ASC_NODE,ARG_OF_PERICENTER,MEAN_ANOMALY,BSTAR,MEAN_MOTION_DOT,MEAN_MOTION_DDOT,TLE_LINE0,TLE_LINE1,TLE_LINE2,SEMIMAJOR_AXIS,PERIOD,APOGEE,PERIGEE,DECAYED
49454.0,STARLINK-3160,PAYLOAD,2022-11-17 03:01:20,15.08845241,0.0002103,53.2158,244.5808,40.5843,319.5306,0.00020535,2.982e-05,0.0,0 STARLINK-3160,1 49454U 21104AY  22321.12593291  .00002982  00000-0  20535-3 0  9995,2 49454  53.2158 244.5808 0002103  40.5843 319.5306 15.08845241 56324,6917.864000000001,95.437,541.184,538.275,0.0
49454.0,STARLINK-3160,PAYLOAD,2022-11-17 18:55:11,15.08857881,0.0002555,53.2155,241.6073,50.9849,309.1371,-0.00015065,-2.687e-05,0.0,0 STARLINK-3160,1 49454U 21104AY  22321.78832558 -.00002687  00000-0 -15065-3 0  9995,2 49454  53.2155 241.6073 0002555  50.9849 309.1371 15.08857881 56426,6917.826,95.436,541.4580000000002,537.923,0.0
49454.0,STARLINK-3160,PAYLOAD,2022-11-18 04:27:34,15.08776369,0.0002608,53.2157,239.8238,57.1577,302.9666,0.0024071,0.00038163,0.0,0 STARLINK-3160,1 49454U 21104AY  22322.18581692  .00038163  00000-0  24071-2 0  9992,2 49454  53.2157 239.8238 0002608  57.1577 302.9666 15.08776369 57561,6918.075,95.442,541.744,538.136,0.0
49454.0,STARLINK-3160,PAYLOAD,2022-11-19 01:07:31,15.08841277,0.0002113,53.2159,235.958,47.4455,312.6715,3.0826e-05,2.02e-06,0.0,0 STARLINK-3160,1 49454U 21104AY  22323.04689374  .00000202  00000-0  30826-4 0  9994,2 49454  53.2159 235.9580 0002113  47.4455 312.6715 15.08841277 57696,6917.876,95.437,541.203,538.28,0.0
49454.0,STARLINK-3160,PAYLOAD,2022-11-19 04:18:17,15.08842699,0.0002054,53.2159,235.3626,46.0578,314.0584,6.1079e-05,6.84e-06,0.0,0 STARLINK-3160,1 49454U 21104AY  22323.17937393  .00000684  00000-0  61079-4 0  9993,2 49454  53.2159 235.3626 0002054  46.0578 314.0584 15.08842699 56638,6917.871999999999,95.437,541.158,538.316,0.0
49454.0,STARLINK-3160,PAYLOAD,2022-11-20 02:33:41,15.08843935,0.0002077,53.2157,231.1993,44.6983,315.4177,1.6702e-05,-2.2e-07,0.0,0 STARLINK-3160,1 49454U 21104AY  22324.10673118 -.00000022  00000-0  16702-4 0  9999,2 49454  53.2157 231.1993 0002077  44.6983 315.4177 15.08843935 57858,6917.868,95.437,541.17,538.297,0.0
49454.0,STARLINK-3160,PAYLOAD,2022-11-20 04:09:04,15.08843672,0.0002073,53.2156,230.902,45.4859,314.6303,6.532699999999999e-05,7.52e-06,0.0,0 STARLINK-3160,1 49454U 21104AY  22324.17297191  .00000752  00000-0  65327-4 0  9995,2 49454  53.2156 230.9020 0002073  45.4859 314.6303 15.08843672 56783,6917.869000000002,95.437,541.168,538.3,0.0
49454.0,STARLINK-3160,PAYLOAD,2022-11-20 18:27:32,15.08842484,0.0002099,53.216,228.2252,44.8201,315.2961,0.00013681,1.89e-05,0.0,0 STARLINK-3160,1 49454U 21104AY  22324.76913167  .00001890  00000-0  13681-3 0  9997,2 49454  53.2160 228.2252 0002099  44.8201 315.2961 15.08842484 56874,6917.873000000001,95.437,541.19,538.286,0.0
49454.0,STARLINK-3160,PAYLOAD,2022-11-21 02:24:29,15.08833382,0.0002146,53.216,226.7386,44.1011,316.0152,-1.8148e-05,-5.77e-06,0.0,0 STARLINK-3160,1 49454U 21104AY  22325.10033641 -.00000577  00000-0 -18148-4 0  9993,2 49454  53.2160 226.7386 0002146  44.1011 316.0152 15.08833382 58005,6917.901,95.438,541.25,538.281,0.0
49454.0,STARLINK-3160,PAYLOAD,2022-11-21 19:53:43,15.08837142,0.0002137,53.2158,223.4677,44.4993,315.6171,1.4692e-05,-5.4e-07,0.0,0 STARLINK-3160,1 49454U 21104AY  22325.82897768 -.00000054  00000-0  14692-4 0  9999,2 49454  53.2158 223.4677 0002137  44.4993 315.6171 15.08837142 57037,6917.889,95.438,541.232,538.276,0.0
49454.0,STARLINK-3160,PAYLOAD,2022-11-22 02:15:15,15.0884467,0.0002085,53.2161,222.2786,46.6293,313.4872,0.00010888,1.445e-05,0.0,0 STARLINK-3160,1 49454U 21104AY  22326.09393515  .00001445  00000-0  10888-3 0  9996,2 49454  53.2161 222.2786 0002085  46.6293 313.4872 15.08844670 58150,6917.866,95.437,541.173,538.289,0.0
49454.0,STARLINK-3160,PAYLOAD,2022-11-22 10:12:11,15.08838385,0.0002147,53.2154,220.7921,48.486,311.6317,1.6111e-05,-3.2e-07,0.0,0 STARLINK-3160,1 49454U 21104AY  22326.42513745 -.00000032  00000-0  16111-4 0  9990,2 49454  53.2154 220.7921 0002147  48.4860 311.6317 15.08838385 57121,6917.885,95.438,541.236,538.265,0.0
49454.0,STARLINK-3160,PAYLOAD,2022-11-22 16:33:44,15.08833467,0.0002153,53.2154,219.6027,42.2201,317.8956,3.0759e-06,-2.39e-06,0.0,0 STARLINK-3160,1 49454U 21104AY  22326.69010126 -.00000239  00000-0  30759-5 0  9998,2 49454  53.2154 219.6027 0002153  42.2201 317.8956 15.08833467 58240,6917.9,95.438,541.255,538.276,0.0
49454.0,STARLINK-3160,PAYLOAD,2022-11-22 19:44:31,15.08827536,0.0002181,53.2153,219.0079,49.7167,310.4016,-2.1683e-05,-6.33e-06,0.0,0 STARLINK-3160,1 49454U 21104AY  22326.82258487 -.00000633  00000-0 -21683-4 0  9991,2 49454  53.2153 219.0079 0002181  49.7167 310.4016 15.08827536 57182,6917.918000000002,95.438,541.2919999999998,538.275,0.0
49454.0,STARLINK-3160,PAYLOAD,2022-11-23 10:02:58,15.08842329,0.0002138,53.2161,216.3311,49.3866,310.7312,0.0002324,3.413e-05,0.0,0 STARLINK-3160,1 49454U 21104AY  22327.41873830  .00003413  00000-0  23240-3 0  9999,2 49454  53.2161 216.3311 0002138  49.3866 310.7312 15.08842329 58353,6917.873000000001,95.437,541.217,538.259,0.0
49454.0,STARLINK-3160,PAYLOAD,2022-11-23 16:24:31,15.08850302,0.0002118,53.2162,215.141,50.1124,310.0054,0.00017755,2.539e-05,0.0,0 STARLINK-3160,1 49454U 21104AY  22327.68369455  .00002539  00000-0  17755-3 0  9993,2 49454  53.2162 215.1410 0002118  50.1124 310.0054 15.08850302 57317,6917.849,95.437,541.179,538.249,0.0
49454.0,STARLINK-3160,PAYLOAD,2022-11-24 09:53:45,15.08852289,0.0002061,53.2157,211.871,46.3495,313.7668,0.00018941,2.729e-05,0.0,0 STARLINK-3160,1 49454U 21104AY  22328.41233198  .00002729  00000-0  18941-3 0  9998,2 49454  53.2157 211.8710 0002061  46.3495 313.7668 15.08852289 57421,6917.843000000003,95.437,541.134,538.2819999999998,0.0
49454.0,STARLINK-3160,PAYLOAD,2022-11-25 01:47:37,15.08837371,0.0002049,53.2161,208.8973,47.4891,312.6274,0.00013844,1.916e-05,0.0,0 STARLINK-3160,1 49454U 21104AY  22329.07473996  .00001916  00000-0  13844-3 0  9997,2 49454  53.2161 208.8973 0002049  47.4891 312.6274 15.08837371 58608,6917.888000000001,95.438,541.1709999999998,538.336,0.0
49454.0,STARLINK-3160,PAYLOAD,2022-11-25 09:44:33,15.08847535,0.0002014,53.2164,207.4105,45.2959,314.8197,-0.00015239,-2.713e-05,0.0,0 STARLINK-3160,1 49454U 21104AY  22329.40593773 -.00002713  00000-0 -15239-3 0  9998,2 49454  53.2164 207.4105 0002014  45.2959 314.8197 15.08847535 57572,6917.857,95.437,541.116,538.3290000000002,0.0
49454.0,STARLINK-3160,PAYLOAD,2022-11-25 16:06:05,15.08843702,0.0001919,53.2166,206.2212,42.8651,317.2491,-6.0885e-06,-3.85e-06,0.0,0 STARLINK-3160,1 49454U 21104AY  22329.67089754 -.00000385  00000-0 -60885-5 0  9998,2 49454  53.2166 206.2212 0001919  42.8651 317.2491 15.08843702 57616,6917.869000000002,95.437,541.062,538.4069999999998,0.0
49454.0,STARLINK-3160,PAYLOAD,2022-11-26 01:38:23,15.08870151,0.0002024,53.2157,204.4367,46.2453,313.8706,-0.00023967,-4.104e-05,0.0,0 STARLINK-3160,1 49454U 21104AY  22330.06832281 -.00004104  00000-0 -23967-3 0  9995,2 49454  53.2157 204.4367 0002024  46.2453 313.8706 15.08870151 58758,6917.788000000001,95.436,541.053,538.253,0.0
49454.0,STARLINK-3160,PAYLOAD,2022-11-26 15:56:51,15.08845164,0.0002066,53.2151,201.7602,46.5671,313.5493,0.00018458,2.651e-05,0.0,0 STARLINK-3160,1 49454U 21104AY  22330.66448645  .00002651  00000-0  18458-3 0  9990,2 49454  53.2151 201.7602 0002066  46.5671 313.5493 15.08845164 58841,6917.865,95.437,541.159,538.3,0.0
49454.0,STARLINK-3160,PAYLOAD,2022-11-27 07:50:43,15.08839496,0.0002192,53.2145,198.7861,49.9087,310.2097,0.00017721,2.533e-05,0.0,0 STARLINK-3160,1 49454U 21104AY  22331.32689326  .00002533  00000-0  17721-3 0  9998,2 49454  53.2145 198.7861 0002192  49.9087 310.2097 15.08839496 58940,6917.882,95.438,541.263,538.231,0.0
49454.0,STARLINK-3160,PAYLOAD,2022-11-27 22:09:12,15.08831275,0.0002027,53.214,196.1097,48.9025,311.2142,-0.0001379,-2.482e-05,0.0,0 STARLINK-3160,1 49454U 21104AY  22331.92305605 -.00002482  00000-0 -13790-3 0  9996,2 49454  53.2140 196.1097 0002027  48.9025 311.2142 15.08831275 57955,6917.906999999997,95.438,541.174,538.37,0.0
49454.0,STARLINK-3160,PAYLOAD,2022-11-28 01:19:58,15.08832176,0.0002007,53.2157,195.515,45.8346,314.2811,-7.067e-05,-1.413e-05,0.0,0 STARLINK-3160,1 49454U 21104AY  22332.05554185 -.00001413  00000-0 -70670-4 0  9994,2 49454  53.2157 195.5150 0002007  45.8346 314.2811 15.08832176 59056,6917.904,95.438,541.158,538.381,0.0
49454.0,STARLINK-3160,PAYLOAD,2022-11-28 07:41:31,15.0883592,0.000201,53.216,194.3256,46.4654,313.6505,-5.833600000000001e-05,-1.216e-05,0.0,0 STARLINK-3160,1 49454U 21104AY  22332.32049951 -.00001216  00000-0 -58336-4 0  9990,2 49454  53.2160 194.3256 0002010  46.4654 313.6505 15.08835920 58015,6917.893,95.438,541.148,538.367,0.0
49454.0,STARLINK-3160,PAYLOAD,2022-11-29 01:10:45,15.08836117,0.0002043,53.216,191.0543,45.8401,314.2758,2.4022e-05,9.4e-07,0.0,0 STARLINK-3160,1 49454U 21104AY  22333.04913827  .00000094  00000-0  24022-4 0  9998,2 49454  53.2160 191.0543 0002043  45.8401 314.2758 15.08836117 59205,6917.892,95.438,541.1709999999998,538.344,0.0
49454.0,STARLINK-3160,PAYLOAD,2022-11-29 07:32:17,15.08840104,0.0002067,53.2161,189.865,46.5176,313.5987,4.6857e-05,4.58e-06,0.0,0 STARLINK-3160,1 49454U 21104AY  22333.31409571  .00000458  00000-0  46857-4 0  9998,2 49454  53.2161 189.8650 0002067  46.5176 313.5987 15.08840104 58164,6917.88,95.438,541.175,538.315,0.0
49454.0,STARLINK-3160,PAYLOAD,2022-11-29 15:29:13,15.08852465,0.0001962,53.2161,188.3783,45.3485,314.7667,-8.2498e-05,-1.601e-05,0.0,0 STARLINK-3160,1 49454U 21104AY  22333.64529108 -.00001601  00000-0 -82498-4 0  9997,2 49454  53.2161 188.3783 0001962  45.3485 314.7667 15.08852465 59294,6917.842,95.437,541.065,538.35,0.0
